IRIDIUM 150             
1 43257U 18030J   24213.53291144  .00000255  00000+0  84133-4 0  9998
2 43257  86.3965 216.9886 0002283  82.3293 277.8162 14.34217421331887
IRIDIUM 143             
1 43258U 18030K   24213.51388381  .00000251  00000+0  82578-4 0  9994
2 43258  86.3968 217.0623 0002165  82.1422 278.0020 14.34218791331846
IRIDIUM 161             
1 43478U 18047C   24213.48699438  .00000576  00000+0  16534-3 0  9998
2 43478  86.4499  15.0192 0002022  88.7043 271.4390 14.43280979326231
IRIDIUM 152             
1 43479U 18047D   24213.55636908  .00000570  00000+0  19659-3 0  9995
2 43479  86.3976  14.8498 0002167  89.8307 270.3137 14.34218484324217
IRIDIUM 147             
1 43480U 18047E   24213.84178286  .00000775  00000+0  26966-3 0  9995
2 43480  86.3978  14.7235 0002197  93.1169 267.0278 14.34218208324253
IRIDIUM 110             
1 43481U 18047F   24213.84812811  .00000256  00000+0  84327-4 0  9995
2 43481  86.3979  14.7948 0002450  98.7418 261.4056 14.34218757324246
IRIDIUM 162             
1 43482U 18047G   24213.48074760  .00000832  00000+0  24135-3 0  9999
2 43482  86.4500  14.9214 0002253  88.8848 271.2611 14.43291116326220
IRIDIUM 160             
1 43569U 18061A   24213.86373259  .00000016  00000+0 -14469-5 0  9994
2 43569  86.4007 343.1789 0002140 104.7418 255.4015 14.34216864315146
